{"type": "FeatureCollection", "features": [ {"type": "Feature", "properties": {"norad_id": 34681, "name": "COSMOS 2251 DEB", "group": "cosmos-2251-debris", "lat": 9.518886961774873, "lon": -52.77639307162192, "alt_km": 603.5377717868714, "timestamp": "2025-12-05T14:45:15.692486+00:00", "meta": {"OBJECT_NAME": "COSMOS 2251 DEB", "OBJECT_ID": "1993-036YB", "EPOCH": "2025-12-04T08:40:07.394016", "MEAN_MOTION": 14.82884703, "ECCENTRICITY": 0.0025689, "INCLINATION": 74.0624, "RA_OF_ASC_NODE": 306.9526, "ARG_OF_PERICENTER": 5.0332, "MEAN_ANOMALY": 155.56, "EPHEMERIS_TYPE": 0, "CLASSIFICATION_TYPE": "U", "NORAD_CAT_ID": 34681, "ELEMENT_SET_NO": 999, "REV_AT_EPOCH": 89146, "BSTAR": 0.0036671, "MEAN_MOTION_DOT": 0.00029993, "MEAN_MOTION_DDOT": 0}, "tle": {"line1": "1 34681U 93036YB  25338.36119669  .00029993  00000+0  36671-2 0  9991", "line2": "2 34681  74.0624 306.9526 0025689   5.0332 155.5600 14.82884703891466"}}, "geometry": {"type": "Point", "coordinates": [-52.77639307162192, 9.518886961774873]}}, {"type": "Feature", "properties": {"norad_id": 34682, "name": "COSMOS 2251 DEB", "group": "cosmos-2251-debris", "lat": 23.604175850028415, "lon": 103.74153139817506, "alt_km": 708.253404466207, "timestamp": "2025-12-05T14:45:15.692496+00:00", "meta": {"OBJECT_NAME": "COSMOS 2251 DEB", "OBJECT_ID": "1993-036YC", "EPOCH": "2025-12-03T08:28:16.036032", "MEAN_MOTION": 14.58771685, "ECCENTRICITY": 0.0018745, "INCLINATION": 74.0388, "RA_OF_ASC_NODE": 100.8621, "ARG_OF_PERICENTER": 234.1512, "MEAN_ANOMALY": 157.2088, "EPHEMERIS_TYPE": 0, "CLASSIFICATION_TYPE": "U", "NORAD_CAT_ID": 34682, "ELEMENT_SET_NO": 999, "REV_AT_EPOCH": 88549, "BSTAR": 0.0013546, "MEAN_MOTION_DOT": 6.321e-05, "MEAN_MOTION_DDOT": 0}, "tle": {"line1": "1 34682U 93036YC  25337.35296338  .00006321  00000+0  13546-2 0  9995", "line2": "2 34682  74.0388 100.8621 0018745 234.1512 157.2088 14.58771685885493"}}, "geometry": {"type": "Point", "coordinates": [103.74153139817506, 23.604175850028415]}}, {"type": "Feature", "properties": {"norad_id": 34683, "name": "COSMOS 2251 DEB", "group": "cosmos-2251-debris", "lat": 33.2119791886991, "lon": 116.77281162683151, "alt_km": 690.1339350375274, "timestamp": "2025-12-05T14:45:15.692506+00:00", "meta": {"OBJECT_NAME": "COSMOS 2251 DEB", "OBJECT_ID": "1993-036YD", "EPOCH": "2025-12-03T18:51:40.823424", "MEAN_MOTION": 14.64268609, "ECCENTRICITY": 0.0018837, "INCLINATION": 74.0284, "RA_OF_ASC_NODE": 109.4798, "ARG_OF_PERICENTER": 224.3122, "MEAN_ANOMALY": 253.6547, "EPHEMERIS_TYPE": 0, "CLASSIFICATION_TYPE": "U", "NORAD_CAT_ID": 34683, "ELEMENT_SET_NO": 999, "REV_AT_EPOCH": 88217, "BSTAR": 0.0021599236, "MEAN_MOTION_DOT": 0.00011406, "MEAN_MOTION_DDOT": 0}, "tle": {"line1": "1 34683U 93036YD  25337.78588916  .00011406  00000+0  21599-2 0  9996", "line2": "2 34683  74.0284 109.4798 0018837 224.3122 253.6547 14.64268609882176"}}, "geometry": {"type": "Point", "coordinates": [116.77281162683151, 33.2119791886991]}}, {"type": "Feature", "properties": {"norad_id": 34685, "name": "COSMOS 2251 DEB", "group": "cosmos-2251-debris", "lat": 3.5936263081752675, "lon": 163.3596311498557, "alt_km": 705.1110457286795, "timestamp": "2025-12-05T14:45:15.692516+00:00", "meta": {"OBJECT_NAME": "COSMOS 2251 DEB", "OBJECT_ID": "1993-036YF", "EPOCH": "2025-12-03T23:46:05.230848", "MEAN_MOTION": 14.57379377, "ECCENTRICITY": 0.00144098, "INCLINATION": 74.0286, "RA_OF_ASC_NODE": 165.4159, "ARG_OF_PERICENTER": 269.3813, "MEAN_ANOMALY": 215.0589, "EPHEMERIS_TYPE": 0, "CLASSIFICATION_TYPE": "U", "NORAD_CAT_ID": 34685, "ELEMENT_SET_NO": 999, "REV_AT_EPOCH": 88404, "BSTAR": 0.0019131559, "MEAN_MOTION_DOT": 8.667e-05, "MEAN_MOTION_DDOT": 0}, "tle": {"line1": "1 34685U 93036YF  25337.99033832  .00008667  00000+0  19132-2 0  9998", "line2": "2 34685  74.0286 165.4159 0014409 269.3813 215.0589 14.57379377884043"}}, "geometry": {"type": "Point", "coordinates": [163.3596311498557, 3.5936263081752675]}}, {"type": "Feature", "properties": {"norad_id": 34689, "name": "COSMOS 2251 DEB", "group": "cosmos-2251-debris", "lat": 50.86163592134682, "lon": 35.267818760207184, "alt_km": 1040.7564602621642, "timestamp": "2025-12-05T14:45:15.692526+00:00", "meta": {"OBJECT_NAME": "COSMOS 2251 DEB", "OBJECT_ID": "1993-036YK", "EPOCH": "2025-12-01T04:52:05.077056", "MEAN_MOTION": 14.04150485, "ECCENTRICITY": 0.0229843, "INCLINATION": 74.0888, "RA_OF_ASC_NODE": 243.4543, "ARG_OF_PERICENTER": 314.8144, "MEAN_ANOMALY": 197.2792, "EPHEMERIS_TYPE": 0, "CLASSIFICATION_TYPE": "U", "NORAD_CAT_ID": 34689, "ELEMENT_SET_NO": 999, "REV_AT_EPOCH": 84179, "BSTAR": 0.0056499, "MEAN_MOTION_DOT": 0.00011323, "MEAN_MOTION_DDOT": 0}, "tle": {"line1": "1 34689U 93036YK  25335.20283654  .00011323  00000+0  56499-2 0  9993", "line2": "2 34689  74.0888 243.4543 0229843 314.8144 197.2792 14.04150485841793"}}, "geometry": {"type": "Point", "coordinates": [35.267818760207184, 50.86163592134682]}}, {"type": "Feature", "properties": {"norad_id": 34721, "name": "COSMOS 2251 DEB", "group": "cosmos-2251-debris", "lat": -7.653470426599262, "lon": -23.608037511071416, "alt_km": 858.3970362828877, "timestamp": "2025-12-05T14:45:15.692537+00:00", "meta": {"OBJECT_NAME": "COSMOS 2251 DEB", "OBJECT_ID": "1993-036YP", "EPOCH": "2025-12-03T18:59:35.690784", "MEAN_MOTION": 13.96776355, "ECCENTRICITY": 0.02239774, "INCLINATION": 73.9228, "RA_OF_ASC_NODE": 341.7745, "ARG_OF_PERICENTER": 282.3054, "MEAN_ANOMALY": 262.1948, "EPHEMERIS_TYPE": 0, "CLASSIFICATION_TYPE": "U", "NORAD_CAT_ID": 34721, "ELEMENT_SET_NO": 999, "REV_AT_EPOCH": 85024, "BSTAR": 0.002612765, "MEAN_MOTION_DOT": 4.461e-05, "MEAN_MOTION_DDOT": 0}, "tle": {"line1": "1 34721U 93036YP  25337.79138531  .00004461  00000+0  26128-2 0  9990", "line2": "2 34721  73.9228 341.7745 0223977 282.3054 262.1948 13.96776355850248"}}, "geometry": {"type": "Point", "coordinates": [-23.608037511071416, -7.653470426599262]}}, {"type": "Feature", "properties": {"norad_id": 34722, "name": "COSMOS 2251 DEB", "group": "cosmos-2251-debris", "lat": -6.524061574141571, "lon": 170.67410294861563, "alt_km": 851.7803290274451, "timestamp": "2025-12-05T14:45:15.692547+00:00", "meta": {"OBJECT_NAME": "COSMOS 2251 DEB", "OBJECT_ID": "1993-036YQ", "EPOCH": "2025-12-04T07:19:22.888128", "MEAN_MOTION": 14.11891553, "ECCENTRICITY": 0.0167436, "INCLINATION": 73.8717, "RA_OF_ASC_NODE": 351.1125, "ARG_OF_PERICENTER": 278.1012, "MEAN_ANOMALY": 96.4172, "EPHEMERIS_TYPE": 0, "CLASSIFICATION_TYPE": "U", "NORAD_CAT_ID": 34722, "ELEMENT_SET_NO": 999, "REV_AT_EPOCH": 86126, "BSTAR": 0.001468, "MEAN_MOTION_DOT": 3.034e-05, "MEAN_MOTION_DDOT": 0}, "tle": {"line1": "1 34722U 93036YQ  25338.30512602  .00003034  00000+0  14680-2 0  9999", "line2": "2 34722  73.8717 351.1125 0167436 278.1012  96.4172 14.11891553861269"}}, "geometry": {"type": "Point", "coordinates": [170.67410294861563, -6.524061574141571]}}, {"type": "Feature", "properties": {"norad_id": 34726, "name": "COSMOS 2251 DEB", "group": "cosmos-2251-debris", "lat": 70.1472246869918, "lon": 52.39948940630709, "alt_km": 679.8557240734108, "timestamp": "2025-12-05T14:45:15.692557+00:00", "meta": {"OBJECT_NAME": "COSMOS 2251 DEB", "OBJECT_ID": "1993-036YU", "EPOCH": "2025-12-04T05:29:38.175648", "MEAN_MOTION": 14.59432609, "ECCENTRICITY": 0.0042478, "INCLINATION": 74.0292, "RA_OF_ASC_NODE": 2.5592, "ARG_OF_PERICENTER": 155.9312, "MEAN_ANOMALY": 204.3851, "EPHEMERIS_TYPE": 0, "CLASSIFICATION_TYPE": "U", "NORAD_CAT_ID": 34726, "ELEMENT_SET_NO": 999, "REV_AT_EPOCH": 88378, "BSTAR": 0.00084265, "MEAN_MOTION_DOT": 4.017e-05, "MEAN_MOTION_DDOT": 0}, "tle": {"line1": "1 34726U 93036YU  25338.22891407  .00004017  00000+0  84265-3 0  9996", "line2": "2 34726  74.0292   2.5592 0042478 155.9312 204.3851 14.59432609883782"}}, "geometry": {"type": "Point", "coordinates": [52.39948940630709, 70.1472246869918]}}, {"type": "Feature", "properties": {"norad_id": 34728, "name": "COSMOS 2251 DEB", "group": "cosmos-2251-debris", "lat": 24.734994012157923, "lon": -86.79561644198232, "alt_km": 635.450623190377, "timestamp": "2025-12-05T14:45:15.692567+00:00", "meta": {"OBJECT_NAME": "COSMOS 2251 DEB", "OBJECT_ID": "1993-036YW", "EPOCH": "2025-12-04T14:09:00.728064", "MEAN_MOTION": 14.707163, "ECCENTRICITY": 0.0040788, "INCLINATION": 74.0179, "RA_OF_ASC_NODE": 267.6086, "ARG_OF_PERICENTER": 67.5207, "MEAN_ANOMALY": 293.0275, "EPHEMERIS_TYPE": 0, "CLASSIFICATION_TYPE": "U", "NORAD_CAT_ID": 34728, "ELEMENT_SET_NO": 999, "REV_AT_EPOCH": 88680, "BSTAR": 0.0017603, "MEAN_MOTION_DOT": 0.00010855, "MEAN_MOTION_DDOT": 0}, "tle": {"line1": "1 34728U 93036YW  25338.58959176  .00010855  00000+0  17603-2 0  9993", "line2": "2 34728  74.0179 267.6086 0040788  67.5207 293.0275 14.70716300886800"}}, "geometry": {"type": "Point", "coordinates": [-86.79561644198232, 24.734994012157923]}}, {"type": "Feature", "properties": {"norad_id": 34729, "name": "COSMOS 2251 DEB", "group": "cosmos-2251-debris", "lat": 72.91854730758207, "lon": 123.69308534948273, "alt_km": 607.6023423811948, "timestamp": "2025-12-05T14:45:15.692577+00:00", "meta": {"OBJECT_NAME": "COSMOS 2251 DEB", "OBJECT_ID": "1993-036YX", "EPOCH": "2025-12-04T12:58:16.856832", "MEAN_MOTION": 14.82438505, "ECCENTRICITY": 0.0012048, "INCLINATION": 74.0188, "RA_OF_ASC_NODE": 14.667, "ARG_OF_PERICENTER": 138.6944, "MEAN_ANOMALY": 346.4649, "EPHEMERIS_TYPE": 0, "CLASSIFICATION_TYPE": "U", "NORAD_CAT_ID": 34729, "ELEMENT_SET_NO": 999, "REV_AT_EPOCH": 88336, "BSTAR": 0.0043823, "MEAN_MOTION_DOT": 0.00035338, "MEAN_MOTION_DDOT": 0}, "tle": {"line1": "1 34729U 93036YX  25338.54047288  .00035338  00000+0  43823-2 0  9998", "line2": "2 34729  74.0188  14.6670 0012048 138.6944 346.4649 14.82438505883363"}}, "geometry": {"type": "Point", "coordinates": [123.69308534948273, 72.91854730758207]}}]}